QIANFAN-105             
1 66047U 25233Q   25337.48031356  .00000162  00000+0  10188-3 0  9997
2 66047  88.9967  63.1531 0017315  70.0430 290.2611 13.99258234  6690
QIANFAN-106             
1 66048U 25233R   25337.50960765  .00000208  00000+0  14158-3 0  9998
2 66048  88.9960  63.1562 0017807  68.9377 291.3702 13.96119263  6698
QIANFAN-107             
1 66049U 25233S   25337.48645613  .00000184  00000+0  12175-3 0  9998
2 66049  88.9939  63.1544 0017351  69.8371 290.4671 13.97180686  6696
QIANFAN-108             
1 66050U 25233T   25337.28133909  .00000246  00000+0  16784-3 0  9997
2 66050  88.9964  63.1791 0016809  71.4233 288.8768 13.96638395  6662
